{
    "links": {
        "self": "http://www.neowsapp.com/rest/v1/neo/3573149?api_key=iIulBulltgU6a56xZRHN4H3l9WmuAYTsLGpBGhQ2"
    },
    "id": "3573149",
    "neo_reference_id": "3573149",
    "name": "(2011 OW4)",
    "designation": "2011 OW4",
    "nasa_jpl_url": "http://ssd.jpl.nasa.gov/sbdb.cgi?sstr=3573149",
    "absolute_magnitude_h": 20.6,
    "estimated_diameter": {
        "kilometers": {
            "estimated_diameter_min": 0.2016299194,
            "estimated_diameter_max": 0.4508582062
        },
        "meters": {
            "estimated_diameter_min": 201.6299194428,
            "estimated_diameter_max": 450.8582061718
        },
        "miles": {
            "estimated_diameter_min": 0.1252869847,
            "estimated_diameter_max": 0.2801502144
        },
        "feet": {
            "estimated_diameter_min": 661.5155049046,
            "estimated_diameter_max": 1479.1936371367
        }
    },
    "is_potentially_hazardous_asteroid": false,
    "close_approach_data": [
        {
            "close_approach_date": "2009-02-26",
            "close_approach_date_full": "2009-Feb-26 23:29",
            "epoch_date_close_approach": 1235690940000,
            "relative_velocity": {
                "kilometers_per_second": "26.8462376866",
                "kilometers_per_hour": "96646.4556718324",
                "miles_per_hour": "60052.3490812005"
            },
            "miss_distance": {
                "astronomical": "0.256753903",
                "lunar": "99.877268267",
                "kilometers": "38409837.00298661",
                "miles": "23866765.997010818"
            },
            "orbiting_body": "Earth"
        },
        {
            "close_approach_date": "2011-08-14",
            "close_approach_date_full": "2011-Aug-14 05:42",
            "epoch_date_close_approach": 1313300520000,
            "relative_velocity": {
                "kilometers_per_second": "22.0460975526",
                "kilometers_per_hour": "79365.951189216",
                "miles_per_hour": "49314.9156153215"
            },
            "miss_distance": {
                "astronomical": "0.1880670107",
                "lunar": "73.1580671623",
                "kilometers": "28134424.217987209",
                "miles": "17481920.5616291242"
            },
            "orbiting_body": "Earth"
        }
    ],
    "orbital_data": {
        "orbit_id": "15",
        "orbit_determination_date": "2017-04-06 08:53:09",
        "first_observation_date": "2011-07-25",
        "last_observation_date": "2011-08-17",
        "data_arc_in_days": 23,
        "observations_used": 53,
        "orbit_uncertainty": "7",
        "minimum_orbit_intersection": ".188848",
        "jupiter_tisserand_invariant": "3.512",
        "epoch_osculation": "2459000.5",
        "eccentricity": ".717587192565441",
        "semi_major_axis": "1.943267101547645",
        "inclination": "11.5455160788942",
        "ascending_node_longitude": "254.0497249207245",
        "orbital_period": "989.4575675517149",
        "perihelion_distance": ".5488035177432887",
        "perihelion_argument": "163.6453197776558",
        "aphelion_distance": "3.337730685352001",
        "perihelion_time": "2458807.933892109061",
        "mean_anomaly": "70.0624272471541",
        "mean_motion": ".3638357134311212",
        "equinox": "J2000",
        "orbit_class": {
            "orbit_class_type": "APO",
            "orbit_class_description": "Near-Earth asteroid orbits which cross the Earth’s orbit similar to that of 1862 Apollo",
            "orbit_class_range": "a (semi-major axis) > 1.0 AU; q (perihelion) < 1.017 AU"
        }
    },
    "is_sentry_object": false
}